<?xml version="1.0" encoding="UTF-8"?>
<ndm xmlns:xsi="http://www.w3.org/2001/XMLSchema-instance" xsi:noNamespaceSchemaLocation="https://sanaregistry.org/r/ndmxml_unqualified/ndmxml-2.0.0-master-2.0.xsd">
<omm id="CCSDS_OMM_VERS" version="2.0">
<header><CREATION_DATE/><ORIGINATOR/></header><body><segment><metadata><OBJECT_NAME>ONEWEB-0588</OBJECT_NAME><OBJECT_ID>2023-004P</OBJECT_ID><CENTER_NAME>EARTH</CENTER_NAME><REF_FRAME>TEME</REF_FRAME><TIME_SYSTEM>UTC</TIME_SYSTEM><MEAN_ELEMENT_THEORY>SGP4</MEAN_ELEMENT_THEORY></metadata><data><meanElements><EPOCH>2025-09-27T06:31:00.487488</EPOCH><MEAN_MOTION>13.18687060</MEAN_MOTION><ECCENTRICITY>.00022249</ECCENTRICITY><INCLINATION>87.9203</INCLINATION><RA_OF_ASC_NODE>27.6987</RA_OF_ASC_NODE><ARG_OF_PERICENTER>101.1504</ARG_OF_PERICENTER><MEAN_ANOMALY>258.9879</MEAN_ANOMALY></meanElements><tleParameters><EPHEMERIS_TYPE>0</EPHEMERIS_TYPE><CLASSIFICATION_TYPE>U</CLASSIFICATION_TYPE><NORAD_CAT_ID>55153</NORAD_CAT_ID><ELEMENT_SET_NO>999</ELEMENT_SET_NO><REV_AT_EPOCH>13504</REV_AT_EPOCH><BSTAR>.2955107E-3</BSTAR><MEAN_MOTION_DOT>.129E-5</MEAN_MOTION_DOT><MEAN_MOTION_DDOT>0</MEAN_MOTION_DDOT></tleParameters></data></segment></body></omm>
<omm id="CCSDS_OMM_VERS" version="2.0">
<header><CREATION_DATE/><ORIGINATOR/></header><body><segment><metadata><OBJECT_NAME>ONEWEB-0598</OBJECT_NAME><OBJECT_ID>2023-004Q</OBJECT_ID><CENTER_NAME>EARTH</CENTER_NAME><REF_FRAME>TEME</REF_FRAME><TIME_SYSTEM>UTC</TIME_SYSTEM><MEAN_ELEMENT_THEORY>SGP4</MEAN_ELEMENT_THEORY></metadata><data><meanElements><EPOCH>2025-09-27T00:18:16.459200</EPOCH><MEAN_MOTION>13.11414209</MEAN_MOTION><ECCENTRICITY>.00016881</ECCENTRICITY><INCLINATION>87.8787</INCLINATION><RA_OF_ASC_NODE>73.5016</RA_OF_ASC_NODE><ARG_OF_PERICENTER>114.4055</ARG_OF_PERICENTER><MEAN_ANOMALY>245.7249</MEAN_ANOMALY></meanElements><tleParameters><EPHEMERIS_TYPE>0</EPHEMERIS_TYPE><CLASSIFICATION_TYPE>U</CLASSIFICATION_TYPE><NORAD_CAT_ID>55154</NORAD_CAT_ID><ELEMENT_SET_NO>999</ELEMENT_SET_NO><REV_AT_EPOCH>13140</REV_AT_EPOCH><BSTAR>-.97866651E-3</BSTAR><MEAN_MOTION_DOT>-.334E-5</MEAN_MOTION_DOT><MEAN_MOTION_DDOT>0</MEAN_MOTION_DDOT></tleParameters></data></segment></body></omm>
<omm id="CCSDS_OMM_VERS" version="2.0">
<header><CREATION_DATE/><ORIGINATOR/></header><body><segment><metadata><OBJECT_NAME>ONEWEB-0599</OBJECT_NAME><OBJECT_ID>2023-004R</OBJECT_ID><CENTER_NAME>EARTH</CENTER_NAME><REF_FRAME>TEME</REF_FRAME><TIME_SYSTEM>UTC</TIME_SYSTEM><MEAN_ELEMENT_THEORY>SGP4</MEAN_ELEMENT_THEORY></metadata><data><meanElements><EPOCH>2025-09-26T23:34:05.804832</EPOCH><MEAN_MOTION>13.17649579</MEAN_MOTION><ECCENTRICITY>.00015451</ECCENTRICITY><INCLINATION>87.9072</INCLINATION><RA_OF_ASC_NODE>58.2160</RA_OF_ASC_NODE><ARG_OF_PERICENTER>100.1424</ARG_OF_PERICENTER><MEAN_ANOMALY>259.9882</MEAN_ANOMALY></meanElements><tleParameters><EPHEMERIS_TYPE>0</EPHEMERIS_TYPE><CLASSIFICATION_TYPE>U</CLASSIFICATION_TYPE><NORAD_CAT_ID>55155</NORAD_CAT_ID><ELEMENT_SET_NO>999</ELEMENT_SET_NO><REV_AT_EPOCH>13282</REV_AT_EPOCH><BSTAR>-.11104726E-3</BSTAR><MEAN_MOTION_DOT>-.3E-6</MEAN_MOTION_DOT><MEAN_MOTION_DDOT>0</MEAN_MOTION_DDOT></tleParameters></data></segment></body></omm>
<omm id="CCSDS_OMM_VERS" version="2.0">
<header><CREATION_DATE/><ORIGINATOR/></header><body><segment><metadata><OBJECT_NAME>ONEWEB-0614</OBJECT_NAME><OBJECT_ID>2023-004S</OBJECT_ID><CENTER_NAME>EARTH</CENTER_NAME><REF_FRAME>TEME</REF_FRAME><TIME_SYSTEM>UTC</TIME_SYSTEM><MEAN_ELEMENT_THEORY>SGP4</MEAN_ELEMENT_THEORY></metadata><data><meanElements><EPOCH>2025-09-27T00:10:56.604576</EPOCH><MEAN_MOTION>13.11413122</MEAN_MOTION><ECCENTRICITY>.00019449</ECCENTRICITY><INCLINATION>87.8784</INCLINATION><RA_OF_ASC_NODE>73.5124</RA_OF_ASC_NODE><ARG_OF_PERICENTER>85.8509</ARG_OF_PERICENTER><MEAN_ANOMALY>274.2841</MEAN_ANOMALY></meanElements><tleParameters><EPHEMERIS_TYPE>0</EPHEMERIS_TYPE><CLASSIFICATION_TYPE>U</CLASSIFICATION_TYPE><NORAD_CAT_ID>55156</NORAD_CAT_ID><ELEMENT_SET_NO>999</ELEMENT_SET_NO><REV_AT_EPOCH>13134</REV_AT_EPOCH><BSTAR>-.37611109E-3</BSTAR><MEAN_MOTION_DOT>-.121E-5</MEAN_MOTION_DOT><MEAN_MOTION_DDOT>0</MEAN_MOTION_DDOT></tleParameters></data></segment></body></omm>
<omm id="CCSDS_OMM_VERS" version="2.0">
<header><CREATION_DATE/><ORIGINATOR/></header><body><segment><metadata><OBJECT_NAME>ONEWEB-0616</OBJECT_NAME><OBJECT_ID>2023-004T</OBJECT_ID><CENTER_NAME>EARTH</CENTER_NAME><REF_FRAME>TEME</REF_FRAME><TIME_SYSTEM>UTC</TIME_SYSTEM><MEAN_ELEMENT_THEORY>SGP4</MEAN_ELEMENT_THEORY></metadata><data><meanElements><EPOCH>2025-09-26T22:45:30.216960</EPOCH><MEAN_MOTION>13.17647653</MEAN_MOTION><ECCENTRICITY>.00006168</ECCENTRICITY><INCLINATION>87.9072</INCLINATION><RA_OF_ASC_NODE>58.2138</RA_OF_ASC_NODE><ARG_OF_PERICENTER>97.0477</ARG_OF_PERICENTER><MEAN_ANOMALY>263.0725</MEAN_ANOMALY></meanElements><tleParameters><EPHEMERIS_TYPE>0</EPHEMERIS_TYPE><CLASSIFICATION_TYPE>U</CLASSIFICATION_TYPE><NORAD_CAT_ID>55157</NORAD_CAT_ID><ELEMENT_SET_NO>999</ELEMENT_SET_NO><REV_AT_EPOCH>13303</REV_AT_EPOCH><BSTAR>.13102511E-3</BSTAR><MEAN_MOTION_DOT>.64E-6</MEAN_MOTION_DOT><MEAN_MOTION_DDOT>0</MEAN_MOTION_DDOT></tleParameters></data></segment></body></omm>
<omm id="CCSDS_OMM_VERS" version="2.0">
<header><CREATION_DATE/><ORIGINATOR/></header><body><segment><metadata><OBJECT_NAME>ONEWEB-0617</OBJECT_NAME><OBJECT_ID>2023-004U</OBJECT_ID><CENTER_NAME>EARTH</CENTER_NAME><REF_FRAME>TEME</REF_FRAME><TIME_SYSTEM>UTC</TIME_SYSTEM><MEAN_ELEMENT_THEORY>SGP4</MEAN_ELEMENT_THEORY></metadata><data><meanElements><EPOCH>2025-09-26T22:04:00.615648</EPOCH><MEAN_MOTION>13.11414510</MEAN_MOTION><ECCENTRICITY>.00019861</ECCENTRICITY><INCLINATION>87.8787</INCLINATION><RA_OF_ASC_NODE>73.5087</RA_OF_ASC_NODE><ARG_OF_PERICENTER>91.7380</ARG_OF_PERICENTER><MEAN_ANOMALY>268.3975</MEAN_ANOMALY></meanElements><tleParameters><EPHEMERIS_TYPE>0</EPHEMERIS_TYPE><CLASSIFICATION_TYPE>U</CLASSIFICATION_TYPE><NORAD_CAT_ID>55158</NORAD_CAT_ID><ELEMENT_SET_NO>999</ELEMENT_SET_NO><REV_AT_EPOCH>13135</REV_AT_EPOCH><BSTAR>.89257445E-3</BSTAR><MEAN_MOTION_DOT>.329E-5</MEAN_MOTION_DOT><MEAN_MOTION_DDOT>0</MEAN_MOTION_DDOT></tleParameters></data></segment></body></omm>
<omm id="CCSDS_OMM_VERS" version="2.0">
<header><CREATION_DATE/><ORIGINATOR/></header><body><segment><metadata><OBJECT_NAME>ONEWEB-0618</OBJECT_NAME><OBJECT_ID>2023-004V</OBJECT_ID><CENTER_NAME>EARTH</CENTER_NAME><REF_FRAME>TEME</REF_FRAME><TIME_SYSTEM>UTC</TIME_SYSTEM><MEAN_ELEMENT_THEORY>SGP4</MEAN_ELEMENT_THEORY></metadata><data><meanElements><EPOCH>2025-09-27T01:27:28.307520</EPOCH><MEAN_MOTION>14.87504499</MEAN_MOTION><ECCENTRICITY>.0014204</ECCENTRICITY><INCLINATION>86.9031</INCLINATION><RA_OF_ASC_NODE>284.0540</RA_OF_ASC_NODE><ARG_OF_PERICENTER>179.1788</ARG_OF_PERICENTER><MEAN_ANOMALY>180.9464</MEAN_ANOMALY></meanElements><tleParameters><EPHEMERIS_TYPE>0</EPHEMERIS_TYPE><CLASSIFICATION_TYPE>U</CLASSIFICATION_TYPE><NORAD_CAT_ID>55159</NORAD_CAT_ID><ELEMENT_SET_NO>999</ELEMENT_SET_NO><REV_AT_EPOCH>14255</REV_AT_EPOCH><BSTAR>.29106865E-3</BSTAR><MEAN_MOTION_DOT>.2669E-4</MEAN_MOTION_DOT><MEAN_MOTION_DDOT>0</MEAN_MOTION_DDOT></tleParameters></data></segment></body></omm>
<omm id="CCSDS_OMM_VERS" version="2.0">
<header><CREATION_DATE/><ORIGINATOR/></header><body><segment><metadata><OBJECT_NAME>ONEWEB-0619</OBJECT_NAME><OBJECT_ID>2023-004W</OBJECT_ID><CENTER_NAME>EARTH</CENTER_NAME><REF_FRAME>TEME</REF_FRAME><TIME_SYSTEM>UTC</TIME_SYSTEM><MEAN_ELEMENT_THEORY>SGP4</MEAN_ELEMENT_THEORY></metadata><data><meanElements><EPOCH>2025-09-26T23:31:40.687392</EPOCH><MEAN_MOTION>13.17648989</MEAN_MOTION><ECCENTRICITY>.00016309</ECCENTRICITY><INCLINATION>87.9072</INCLINATION><RA_OF_ASC_NODE>58.1819</RA_OF_ASC_NODE><ARG_OF_PERICENTER>76.8728</ARG_OF_PERICENTER><MEAN_ANOMALY>283.2586</MEAN_ANOMALY></meanElements><tleParameters><EPHEMERIS_TYPE>0</EPHEMERIS_TYPE><CLASSIFICATION_TYPE>U</CLASSIFICATION_TYPE><NORAD_CAT_ID>55160</NORAD_CAT_ID><ELEMENT_SET_NO>999</ELEMENT_SET_NO><REV_AT_EPOCH>13293</REV_AT_EPOCH><BSTAR>-.86614371E-4</BSTAR><MEAN_MOTION_DOT>-.21E-6</MEAN_MOTION_DOT><MEAN_MOTION_DDOT>0</MEAN_MOTION_DDOT></tleParameters></data></segment></body></omm>

</ndm>
