ONEWEB-0588             
1 55153U 23004P   25270.27153342  .00000129  00000+0  29551-3 0  9997
2 55153  87.9203  27.6987 0002224 101.1504 258.9879 13.18687060135042
ONEWEB-0598             
1 55154U 23004Q   25270.01269050 -.00000334  00000+0 -97867-3 0  9999
2 55154  87.8787  73.5016 0001688 114.4055 245.7249 13.11414209131400
ONEWEB-0599             
1 55155U 23004R   25269.98201163 -.00000030  00000+0 -11105-3 0  9999
2 55155  87.9072  58.2160 0001545 100.1424 259.9882 13.17649579132826
ONEWEB-0614             
1 55156U 23004S   25270.00759959 -.00000121  00000+0 -37611-3 0  9997
2 55156  87.8784  73.5124 0001944  85.8509 274.2841 13.11413122131340
ONEWEB-0616             
1 55157U 23004T   25269.94826640  .00000064  00000+0  13103-3 0  9995
2 55157  87.9072  58.2138 0000616  97.0477 263.0725 13.17647653133030
ONEWEB-0617             
1 55158U 23004U   25269.91945157  .00000329  00000+0  89257-3 0  9995
2 55158  87.8787  73.5087 0001986  91.7380 268.3975 13.11414510131357
ONEWEB-0618             
1 55159U 23004V   25270.06074430  .00002669  00000+0  29107-3 0  9998
2 55159  86.9031 284.0540 0014204 179.1788 180.9464 14.87504499142559
ONEWEB-0619             
1 55160U 23004W   25269.98033203 -.00000021  00000+0 -86614-4 0  9991
2 55160  87.9072  58.1819 0001630  76.8728 283.2586 13.17648989132930
